ORBCOMM-X [-]           
1 21576U 91050C   24040.19448149  .00000638  00000+0  20636-3 0  9992
2 21576  98.4062 109.4283 0002833 225.6840 134.4118 14.42357040710888
ORBCOMM FM01 [-]        
1 23545U 95017A   24040.61173594  .00010930  00000+0  15069-2 0  9992
2 23545  69.9665 213.1756 0006567 322.6633  37.4058 14.78375130539289
ORBCOMM FM02 [-]        
1 23546U 95017B   24040.81811405  .00007607  00000+0  10620-2 0  9990
2 23546  69.9678 231.9288 0008427 321.2619  38.7924 14.77986706539268
ORBCOMM FM08 [-]        
1 25112U 97084A   24040.51487533  .00003397  00000+0  10692-2 0  9996
2 25112  45.0127 210.3961 0007301 269.0806  90.9207 14.41964069370029
ORBCOMM FM10 [-]        
1 25113U 97084B   24040.51680600  .00003461  00000+0  10903-2 0  9994
2 25113  45.0139 212.1771 0005457 238.2410 121.7909 14.41892005545173
ORBCOMM FM11 [+]        
1 25114U 97084C   24040.45884885  .00003131  00000+0  99280-3 0  9999
2 25114  45.0123 212.4516 0006206 239.0915 120.9325 14.41776010370131
ORBCOMM FM12 [-]        
1 25115U 97084D   24039.51583788  .00002841  00000+0  90548-3 0  9998
2 25115  45.0130 216.6164 0005160 234.2923 125.7447 14.41746787369795
ORBCOMM FM09 [-]        
1 25116U 97084E   24039.45571873  .00002836  00000+0  90459-3 0  9999
2 25116  45.0132 217.5638 0006442 221.7986 138.2373 14.41712426369990
